[{"OBJECT_NAME":"STARLINK-35917","OBJECT_ID":"2025-263U","EPOCH":"2026-03-09T22:15:31.756896","MEAN_MOTION":15.27591879,"ECCENTRICITY":0.00013982,"INCLINATION":42.9987,"RA_OF_ASC_NODE":349.4932,"ARG_OF_PERICENTER":264.7433,"MEAN_ANOMALY":95.3259,"EPHEMERIS_TYPE":0,"CLASSIFICATION_TYPE":"U","NORAD_CAT_ID":66503,"ELEMENT_SET_NO":999,"REV_AT_EPOCH":1893,"BSTAR":0.0013425708,"MEAN_MOTION_DOT":0.00036881,"MEAN_MOTION_DDOT":0},{"OBJECT_NAME":"OBJECT BE","OBJECT_ID":"2025-313BE","EPOCH":"2026-03-09T16:43:59.380320","MEAN_MOTION":15.29801687,"ECCENTRICITY":0.00072083,"INCLINATION":97.3989,"RA_OF_ASC_NODE":145.3568,"ARG_OF_PERICENTER":335.3714,"MEAN_ANOMALY":24.7181,"EPHEMERIS_TYPE":0,"CLASSIFICATION_TYPE":"U","NORAD_CAT_ID":67482,"ELEMENT_SET_NO":999,"REV_AT_EPOCH":797,"BSTAR":0.0026504328,"MEAN_MOTION_DOT":0.00077178,"MEAN_MOTION_DDOT":0}]
